NORAD_CAT_ID,OBJECT_NAME,OBJECT_TYPE,EPOCH,MEAN_MOTION,ECCENTRICITY,INCLINATION,RA_OF_ASC_NODE,ARG_OF_PERICENTER,MEAN_ANOMALY,BSTAR,MEAN_MOTION_DOT,MEAN_MOTION_DDOT,TLE_LINE0,TLE_LINE1,TLE_LINE2,SEMIMAJOR_AXIS,PERIOD,APOGEE,PERIGEE,DECAYED
51774.0,STARLINK-3629,PAYLOAD,2024-05-07 06:02:50,15.0886803,0.0001535,53.2151,113.3183,77.4976,282.6187,0.00086934,0.00013585,0.0,0 STARLINK-3629,1 51774U 22017G   24128.25196792  .00013585  00000-0  86934-3 0  9999,2 51774  53.2151 113.3183 0001535  77.4976 282.6187 15.08868030122702,6917.795,95.436,540.722,538.598,0.0
51774.0,STARLINK-3629,PAYLOAD,2024-05-07 15:35:08,15.08853149,0.0001544,53.2139,111.5347,78.041,282.0755,0.00019636,2.84e-05,0.0,0 STARLINK-3629,1 51774U 22017G   24128.64940725  .00002840  00000-0  19636-3 0  9992,2 51774  53.2139 111.5347 0001544  78.0410 282.0755 15.08853149122766,6917.84,95.437,540.773,538.637,0.0
51774.0,STARLINK-3629,PAYLOAD,2024-05-08 05:53:37,15.08837417,0.0001546,53.2153,108.8588,80.1168,279.9999,-7.7977e-06,-4.12e-06,0.0,0 STARLINK-3629,1 51774U 22017G   24129.24557376 -.00000412  00000-0 -77977-5 0  9994,2 51774  53.2153 108.8588 0001546  80.1168 279.9999 15.08837417122859,6917.888,95.438,540.823,538.684,0.0
51774.0,STARLINK-3629,PAYLOAD,2024-05-08 21:47:28,15.08847072,0.0001543,53.2148,105.8848,85.2024,274.9145,5.4764e-05,5.84e-06,0.0,0 STARLINK-3629,1 51774U 22017G   24129.90796676  .00000584  00000-0  54764-4 0  9991,2 51774  53.2148 105.8848 0001543  85.2024 274.9145 15.08847072122950,6917.859,95.437,540.791,538.656,0.0
51774.0,STARLINK-3629,PAYLOAD,2024-05-09 05:44:23,15.08854861,0.0001561,53.2167,104.3994,88.5654,271.5517,4.8681e-05,4.87e-06,0.0,0 STARLINK-3629,1 51774U 22017G   24130.23916299  .00000487  00000-0  48681-4 0  9997,2 51774  53.2167 104.3994 0001561  88.5654 271.5517 15.08854861121502,6917.835,95.437,540.78,538.62,0.0
51774.0,STARLINK-3629,PAYLOAD,2024-05-10 05:35:10,15.08849418,0.0001572,53.2164,99.9371,88.3334,271.7838,0.00020862,3.035e-05,0.0,0 STARLINK-3629,1 51774U 22017G   24131.23276328  .00003035  00000-0  20862-3 0  9992,2 51774  53.2164  99.9371 0001572  88.3334 271.7838 15.08849418123155,6917.852,95.437,540.804,538.629,0.0
51774.0,STARLINK-3629,PAYLOAD,2024-05-10 21:29:02,15.08843954,0.0001747,53.2176,96.9647,86.4462,273.673,5.4559e-05,5.8e-06,0.0,0 STARLINK-3629,1 51774U 22017G   24131.89516663  .00000580  00000-0  54559-4 0  9996,2 51774  53.2176  96.9647 0001747  86.4462 273.6730 15.08843954123258,6917.868,95.437,540.942,538.525,0.0
51774.0,STARLINK-3629,PAYLOAD,2024-05-11 21:19:47,15.08863133,0.0002854,53.2183,92.5062,81.2663,278.8652,0.00027995,4.173e-05,0.0,0 STARLINK-3629,1 51774U 22017G   24132.88874895  .00004173  00000-0  27995-3 0  9995,2 51774  53.2183  92.5062 0002854  81.2663 278.8652 15.08863133123403,6917.81,95.436,541.649,537.7,0.0
51774.0,STARLINK-3629,PAYLOAD,2024-05-12 03:41:22,15.08800686,0.0001727,53.218,91.3148,72.3789,287.7391,-0.0010103,-0.00016314,0.0,0 STARLINK-3629,1 51774U 22017G   24133.15373127 -.00016314  00000-0 -10103-2 0  9992,2 51774  53.2180  91.3148 0001727  72.3789 287.7391 15.08800686123447,6918.001,95.44,541.06,538.671,0.0
51774.0,STARLINK-3629,PAYLOAD,2024-05-12 06:52:09,15.08800736,0.0001909,53.2178,90.719,78.2061,281.9145,-0.00075969,-0.00012345,0.0,0 STARLINK-3629,1 51774U 22017G   24133.28621737 -.00012345  00000-0 -75969-3 0  9991,2 51774  53.2178  90.7190 0001909  78.2061 281.9145 15.08800736121968,6918.0,95.44,541.186,538.545,0.0
51774.0,STARLINK-3629,PAYLOAD,2024-05-12 14:49:05,15.08795749,0.0001924,53.2173,89.2335,81.0444,279.0766,-0.00064837,-0.0001058,0.0,0 STARLINK-3629,1 51774U 22017G   24133.61742857 -.00010580  00000-0 -64837-3 0  9996,2 51774  53.2173  89.2335 0001924  81.0444 279.0766 15.08795749122012,6918.016,95.44,541.212,538.55,0.0
51774.0,STARLINK-3629,PAYLOAD,2024-05-13 03:32:10,15.08829408,0.0002052,53.2169,86.8538,85.599,274.5236,0.00038022,5.767e-05,0.0,0 STARLINK-3629,1 51774U 22017G   24134.14734823  .00005767  00000-0  38022-3 0  9995,2 51774  53.2169  86.8538 0002052  85.5990 274.5236 15.08829408123599,6917.913,95.438,541.197,538.358,0.0
51774.0,STARLINK-3629,PAYLOAD,2024-05-14 01:47:34,15.08853149,0.0001908,53.2169,82.6923,89.8953,270.2257,0.0010402,0.00016312,0.0,0 STARLINK-3629,1 51774U 22017G   24135.07470857  .00016312  00000-0  10402-2 0  9991,2 51774  53.2169  82.6923 0001908  89.8953 270.2257 15.08853149123737,6917.84,95.437,541.025,538.385,0.0
51774.0,STARLINK-3629,PAYLOAD,2024-05-14 12:55:16,15.08860982,0.0001885,53.2168,80.6095,90.8489,269.2719,0.00063103,9.775e-05,0.0,0 STARLINK-3629,1 51774U 22017G   24135.53838124  .00009775  00000-0  63103-3 0  9999,2 51774  53.2168  80.6095 0001885  90.8489 269.2719 15.08860982122300,6917.816,95.436,540.985,538.377,0.0
51774.0,STARLINK-3629,PAYLOAD,2024-05-15 03:13:43,15.08875438,0.0001753,53.2168,77.9311,91.5401,268.5792,0.00061465,9.517e-05,0.0,0 STARLINK-3629,1 51774U 22017G   24136.13452731  .00009517  00000-0  61465-3 0  9995,2 51774  53.2168  77.9311 0001753  91.5401 268.5792 15.08875438123896,6917.772,95.435,540.85,538.424,0.0
51774.0,STARLINK-3629,PAYLOAD,2024-05-15 19:07:34,15.08850591,0.0001845,53.2164,74.958,81.193,278.9271,-8.3382e-05,-1.615e-05,0.0,0 STARLINK-3629,1 51774U 22017G   24136.79692852 -.00001615  00000-0 -83382-4 0  9993,2 51774  53.2164  74.9580 0001845  81.1930 278.9271 15.08850591123992,6917.848,95.437,540.989,538.437,0.0
51774.0,STARLINK-3629,PAYLOAD,2024-05-16 12:36:49,15.08842593,0.0001756,53.2164,71.6873,91.8913,268.228,-3.9358e-06,-3.51e-06,0.0,0 STARLINK-3629,1 51774U 22017G   24137.52557279 -.00000351  00000-0 -39358-5 0  9999,2 51774  53.2164  71.6873 0001756  91.8913 268.2280 15.08842593124100,6917.872,95.437,540.952,538.523,0.0
51774.0,STARLINK-3629,PAYLOAD,2024-05-17 02:55:16,15.08860227,0.0001781,53.2163,69.0103,82.5289,277.5906,0.0005212,8.021e-05,0.0,0 STARLINK-3629,1 51774U 22017G   24138.12172319  .00008021  00000-0  52120-3 0  9994,2 51774  53.2163  69.0103 0001781  82.5289 277.5906 15.08860227124198,6917.819,95.436,540.916,538.452,0.0
51774.0,STARLINK-3629,PAYLOAD,2024-05-17 12:27:36,15.08846469,0.0002041,53.2162,67.2262,76.5602,283.5617,0.00028317,4.222e-05,0.0,0 STARLINK-3629,1 51774U 22017G   24138.51916723  .00004222  00000-0  28317-3 0  9992,2 51774  53.2162  67.2262 0002041  76.5602 283.5617 15.08846469124250,6917.861,95.437,541.138,538.314,0.0
51774.0,STARLINK-3629,PAYLOAD,2024-05-18 02:46:04,15.08837091,0.0001229,53.2163,64.55,95.3695,264.7437,4.6693e-05,4.55e-06,0.0,0 STARLINK-3629,1 51774U 22017G   24139.11533192  .00000455  00000-0  46693-4 0  9996,2 51774  53.2163  64.5500 0001229  95.3695 264.7437 15.08837091124346,6917.889,95.438,540.604,538.904,0.0
51774.0,STARLINK-3629,PAYLOAD,2024-05-18 12:18:23,15.08832484,0.0001167,53.2159,62.7674,97.7801,262.3323,-2.7031e-05,-7.18e-06,0.0,0 STARLINK-3629,1 51774U 22017G   24139.51277623 -.00000718  00000-0 -27031-4 0  9993,2 51774  53.2159  62.7674 0001167  97.7801 262.3323 15.08832484122908,6917.903,95.438,540.576,538.961,0.0
51774.0,STARLINK-3629,PAYLOAD,2024-05-18 18:39:57,15.08818821,0.0001267,53.2172,61.5768,101.2423,258.8712,-0.00025,-4.262e-05,0.0,0 STARLINK-3629,1 51774U 22017G   24139.77774366 -.00004262  00000-0 -25000-3 0  9998,2 51774  53.2172  61.5768 0001267 101.2423 258.8712 15.08818821124448,6917.945,95.439,540.687,538.934,0.0
51774.0,STARLINK-3629,PAYLOAD,2024-05-19 01:01:29,15.08821636,9.88e-05,53.216,60.3864,117.322,242.7873,0.00022453,3.286e-05,0.0,0 STARLINK-3629,1 51774U 22017G   24140.04270508  .00003286  00000-0  22453-3 0  9991,2 51774  53.2160  60.3864 0000988 117.3220 242.7873 15.08821636122986,6917.937,95.439,540.485,539.118,0.0
51774.0,STARLINK-3629,PAYLOAD,2024-05-19 18:30:44,15.08833887,0.0001197,53.2157,57.1178,111.3419,248.7701,0.00040301,6.131e-05,0.0,0 STARLINK-3629,1 51774U 22017G   24140.77134974  .00006131  00000-0  40301-3 0  9991,2 51774  53.2157  57.1178 0001197 111.3419 248.7701 15.08833887124597,6917.899,95.438,540.592,538.936,0.0
51774.0,STARLINK-3629,PAYLOAD,2024-05-20 04:03:03,15.08852429,0.0001262,53.2173,55.3316,112.543,247.5696,0.00080402,0.00012535,0.0,0 STARLINK-3629,1 51774U 22017G   24141.16878652  .00012535  00000-0  80402-3 0  9994,2 51774  53.2173  55.3316 0001262 112.5430 247.5696 15.08852429124658,6917.842,95.437,540.58,538.834,0.0
51774.0,STARLINK-3629,PAYLOAD,2024-05-20 21:32:17,15.08850236,0.000186,53.2148,52.0602,121.1725,238.945,0.00044412,6.789e-05,0.0,0 STARLINK-3629,1 51774U 22017G   24141.89742537  .00006789  00000-0  44412-3 0  9991,2 51774  53.2148  52.0602 0001860 121.1725 238.9450 15.08850236124767,6917.849,95.437,541.001,538.427,0.0
51774.0,STARLINK-3629,PAYLOAD,2024-05-21 03:53:49,15.08858475,0.0001344,53.2164,50.8723,90.7708,269.3438,0.00059335,9.173e-05,0.0,0 STARLINK-3629,1 51774U 22017G   24142.16238364  .00009173  00000-0  59335-3 0  9990,2 51774  53.2164  50.8723 0001344  90.7708 269.3438 15.08858475123300,6917.824,95.436,540.619,538.759,0.0
51774.0,STARLINK-3629,PAYLOAD,2024-05-21 21:23:04,15.08847151,0.0001485,53.2174,47.5975,115.201,244.9136,0.00023661,3.48e-05,0.0,0 STARLINK-3629,1 51774U 22017G   24142.89102144  .00003480  00000-0  23661-3 0  9994,2 51774  53.2174  47.5975 0001485 115.2010 244.9136 15.08847151124919,6917.859,95.437,540.751,538.696,0.0
51774.0,STARLINK-3629,PAYLOAD,2024-05-22 03:44:36,15.0885098,0.0001363,53.2181,46.4101,101.7505,258.364,0.00043281,6.609e-05,0.0,0 STARLINK-3629,1 51774U 22017G   24143.15598111  .00006609  00000-0  43281-3 0  9993,2 51774  53.2181  46.4101 0001363 101.7505 258.3640 15.08850980123451,6917.847,95.437,540.655,538.769,0.0
51774.0,STARLINK-3629,PAYLOAD,2024-05-22 21:13:51,15.08842305,0.0002412,53.2173,43.138,135.2373,224.8814,7.9541e-05,9.78e-06,0.0,0 STARLINK-3629,1 51774U 22017G   24143.88461941  .00000978  00000-0  79541-4 0  9995,2 51774  53.2173  43.1380 0002412 135.2373 224.8814 15.08842305123561,6917.873,95.437,541.407,538.07,0.0
